GSAT0225 (GALILEO 29)   
1 59598U 24079A   26200.37717925 -.00000037  00000+0  00000+0 0  9998
2 59598  55.1387 100.1800 0000435 337.1149 204.2884  1.70473943 13861
GSAT0227 (GALILEO 30)   
1 59600U 24079C   26199.09194253 -.00000031  00000+0  00000+0 0  9995
2 59600  55.1327 100.2145 0002950  69.2435 290.8270  1.70473877 13896
GSAT0232 (GALILEO 32)   
1 61182U 24167A   26201.30674958  .00000058  00000+0  00000+0 0  9992
2 61182  55.1781 220.4043 0006424 233.5497 261.4254  1.70474182 11449
GSAT0226 (GALILEO 31)   
1 61183U 24167B   26202.23879417  .00000065  00000+0  00000+0 0  9991
2 61183  55.1767 220.3858 0003189 239.3461 198.9806  1.70474189 11430
BEIDOU-3 M25            
1 61186U 24168B   26202.28033924 -.00000101  00000+0  00000+0 0  9997
2 61186  54.4404 301.0565 0003466 291.4548  64.2047  1.86230267 12413
BEIDOU-3 M27            
1 61187U 24168C   26200.42214709 -.00000096  00000+0  00000+0 0  9997
2 61187  54.4377 301.1038 0000857  40.8164 284.0569  1.86230211  9854
NAVSTAR 83 (USA 440)    
1 62339U 24242A   26200.72170847 -.00000109  00000+0  00000+0 0  9992
2 62339  54.8338 332.8621 0017996   4.3540 337.1791  2.00572353 11908
QZS-6 (MICHIBIKI-6)     
1 62876U 25023A   26202.13526098 -.00000233  00000+0  00000+0 0  9994
2 62876   0.0148  47.3032 0001999  67.1142 323.6568  1.00274261  5283
COSMOS 2584 [GLONASS-K2]
1 63130U 25042A   26201.92683464 -.00000052  00000+0  00000+0 0  9995
2 63130  65.1042  71.6552 0005299 207.1917 152.8470  2.13103880 10768
NAVSTAR 84 (USA 545)    
1 64202U 25116A   26202.24475308 -.00000088  00000+0  00000+0 0  9999
2 64202  55.2580  29.7605 0008410 339.2727 205.1759  2.00573612  8559
COSMOS 2596 [GLONASS-K1]
1 65590U 25206B   26202.24651389 -.00000089  00000+0  00000+0 0  9996
2 65590  64.6123 313.7992 0011250 307.0092  54.2489  2.13101002  6641
GSAT0233 (GALILEO 33)   
1 67160U 25302A   26202.24299425 -.00000046  00000+0  00000+0 0  9990
2 67160  54.3550 101.1603 0001157 153.0101  24.4101  1.70474103  3700
GSAT0234 (GALILEO 34)   
1 67162U 25302C   26201.33878943 -.00000042  00000+0  00000+0 0  9995
2 67162  54.3566 101.1849 0001861 324.8516 197.7380  1.70474060  3740
NAVSTAR 85 (USA 581)    
1 67588U 26017A   26201.10242183 -.00000054  00000+0  00000+0 0  9990
2 67588  55.1095  87.4339 0021305 260.2926  99.5185  2.00570435432274
NAVSTAR 86 (USA 585)    
1 68791U 26087A   26201.82058642  .00000074  00000+0  00000+0 0  9999
2 68791  54.9613 206.4574 0020523 106.0114 258.1289  2.00573215  1511
