OBJECT_NAME,OBJECT_ID,EPOCH,MEAN_MOTION,ECCENTRICITY,INCLINATION,RA_OF_ASC_NODE,ARG_OF_PERICENTER,MEAN_ANOMALY,EPHEMERIS_TYPE,CLASSIFICATION_TYPE,NORAD_CAT_ID,ELEMENT_SET_NO,REV_AT_EPOCH,BSTAR,MEAN_MOTION_DOT,MEAN_MOTION_DDOT
GSAT0225 (GALILEO 29),2024-079A,2026-07-19T09:03:08.287200,1.70473943,.00004351,55.1387,100.1800,337.1149,204.2884,0,U,59598,999,1386,0,-.37E-6,0
GSAT0227 (GALILEO 30),2024-079C,2026-07-18T02:12:23.834592,1.70473877,.00029504,55.1327,100.2145,69.2435,290.8270,0,U,59600,999,1389,0,-.31E-6,0
GSAT0232 (GALILEO 32),2024-167A,2026-07-20T07:21:43.163712,1.70474182,.00064241,55.1781,220.4043,233.5497,261.4254,0,U,61182,999,1144,0,.58E-6,0
GSAT0226 (GALILEO 31),2024-167B,2026-07-21T05:43:51.816288,1.70474189,.00031892,55.1767,220.3858,239.3461,198.9806,0,U,61183,999,1143,0,.65E-6,0
BEIDOU-3 M25 (C47),2024-168B,2026-07-21T06:43:41.310336,1.86230267,.0003466,54.4404,301.0565,291.4548,64.2047,0,U,61186,999,1241,0,-.101E-5,0
BEIDOU-3 M27 (C49),2024-168C,2026-07-19T10:07:53.508576,1.86230211,.00008576,54.4377,301.1038,40.8164,284.0569,0,U,61187,999,985,0,-.96E-6,0
GPS BIII-7  (PRN 01),2024-242A,2026-07-19T17:19:15.611808,2.00572353,.00179964,54.8338,332.8621,4.3540,337.1791,0,U,62339,999,1190,0,-.109E-5,0
QZS-6 (QZSS/PRN 200),2025-023A,2026-07-21T03:14:46.548672,1.00274261,.00019999,0.0148,47.3032,67.1142,323.6568,0,U,62876,999,528,0,-.233E-5,0
COSMOS 2584 (704K),2025-042A,2026-07-20T22:14:38.512896,2.13103880,.00052999,65.1042,71.6552,207.1917,152.8470,0,U,63130,999,1076,0,-.52E-6,0
GPS BIII-8  (PRN 21),2025-116A,2026-07-21T05:52:26.666112,2.00573612,.00084109,55.2580,29.7605,339.2727,205.1759,0,U,64202,999,855,0,-.88E-6,0
COSMOS 2596 (708K),2025-206B,2026-07-21T05:54:58.800096,2.13101002,.001125,64.6123,313.7992,307.0092,54.2489,0,U,65590,999,664,0,-.89E-6,0
GSAT0233 (GALILEO 33),2025-302A,2026-07-21T05:49:54.703200,1.70474103,.0001157,54.3550,101.1603,153.0101,24.4101,0,U,67160,999,370,0,-.46E-6,0
GSAT0234 (GALILEO 34),2025-302C,2026-07-20T08:07:51.406752,1.70474060,.00018615,54.3566,101.1849,324.8516,197.7380,0,U,67162,999,374,0,-.42E-6,0
GPS BIII-9  (PRN 20),2026-017A,2026-07-20T02:27:29.246112,2.00570435,.00213058,55.1095,87.4339,260.2926,99.5185,0,U,67588,999,43227,0,-.54E-6,0
GPS BIII-10 (PRN 13),2026-087A,2026-07-20T19:41:38.666688,2.00573215,.00205238,54.9613,206.4574,106.0114,258.1289,0,U,68791,999,151,0,.74E-6,0
